[{"OBJECT_NAME":"STARLINK-3392","OBJECT_ID":"2022-005V","EPOCH":"2026-03-09T21:59:18.998304","MEAN_MOTION":15.08818054,"ECCENTRICITY":0.00014155,"INCLINATION":53.2184,"RA_OF_ASC_NODE":288.1069,"ARG_OF_PERICENTER":93.2883,"MEAN_ANOMALY":266.8271,"EPHEMERIS_TYPE":0,"CLASSIFICATION_TYPE":"U","NORAD_CAT_ID":51123,"ELEMENT_SET_NO":999,"REV_AT_EPOCH":22891,"BSTAR":-8.0149942e-5,"MEAN_MOTION_DOT":-1.562e-5,"MEAN_MOTION_DDOT":0},{"OBJECT_NAME":"UPPER FREE FLYER","OBJECT_ID":"2018-099F","EPOCH":"2026-03-09T16:53:56.769792","MEAN_MOTION":15.10728091,"ECCENTRICITY":0.00115819,"INCLINATION":97.4495,"RA_OF_ASC_NODE":120.4613,"ARG_OF_PERICENTER":289.4209,"MEAN_ANOMALY":70.5769,"EPHEMERIS_TYPE":0,"CLASSIFICATION_TYPE":"U","NORAD_CAT_ID":43763,"ELEMENT_SET_NO":999,"REV_AT_EPOCH":39752,"BSTAR":0.00029221901,"MEAN_MOTION_DOT":4.788e-5,"MEAN_MOTION_DDOT":0}]
